start=new Date('2023-04-23T00:00:00.000Z').valueOf();
sats=[{"APOAPSIS":"540.508","TIME_SYSTEM":"UTC","PERIAPSIS":"538.956","EPOCH":"2023-04-22T19:18:21.519072","RA_OF_ASC_NODE":"296.2883","MEAN_MOTION_DDOT":"0.0000000000000","RCS_SIZE":"LARGE","OBJECT_ID":"2022-107AJ","NORAD_CAT_ID":"53732","DECAY_DATE":null,"INCLINATION":"53.2152","ECCENTRICITY":"0.00011220","CLASSIFICATION_TYPE":"U","ARG_OF_PERICENTER":"82.3792","MEAN_ANOMALY":"277.7327","MEAN_ELEMENT_THEORY":"SGP4","SITE":"AFETR","BSTAR":"0.00024589000000","MEAN_MOTION":"15.08844295","COUNTRY_CODE":"US","MEAN_MOTION_DOT":"0.00003628","PERIOD":"95.437","FILE":"3892285","REV_AT_EPOCH":"3575","EPHEMERIS_TYPE":"0","TLE_LINE2":"2 53732  53.2152 296.2883 0001122  82.3792 277.7327 15.08844295 35756","GP_ID":"230595545","REF_FRAME":"TEME","TLE_LINE1":"1 53732U 22107AJ  23112.80441573  .00003628  00000-0  24589-3 0  9993","SEMIMAJOR_AXIS":"6917.867","OBJECT_NAME":"STARLINK-4661","ELEMENT_SET_NO":"999","OBJECT_TYPE":"PAYLOAD","CENTER_NAME":"EARTH","LAUNCH_DATE":"2022-09-05"},{"ECCENTRICITY":"0.00012020","NORAD_CAT_ID":"53733","DECAY_DATE":null,"INCLINATION":"53.2147","CLASSIFICATION_TYPE":"U","ARG_OF_PERICENTER":"79.2103","BSTAR":"-0.00018254000000","SITE":"AFETR","MEAN_ELEMENT_THEORY":"SGP4","MEAN_ANOMALY":"280.9024","TIME_SYSTEM":"UTC","APOAPSIS":"540.607","EPOCH":"2023-04-22T13:18:02.326176","RA_OF_ASC_NODE":"297.5716","PERIAPSIS":"538.944","OBJECT_ID":"2022-107AK","RCS_SIZE":"LARGE","MEAN_MOTION_DDOT":"0.0000000000000","OBJECT_NAME":"STARLINK-4574","SEMIMAJOR_AXIS":"6917.910","TLE_LINE1":"1 53733U 22107AK  23112.55419359 -.00003191  00000-0 -18254-3 0  9992","ELEMENT_SET_NO":"999","OBJECT_TYPE":"PAYLOAD","LAUNCH_DATE":"2022-09-05","CENTER_NAME":"EARTH","MEAN_MOTION":"15.08830264","FILE":"3892071","MEAN_MOTION_DOT":"-0.00003191","PERIOD":"95.438","COUNTRY_CODE":"US","EPHEMERIS_TYPE":"0","REV_AT_EPOCH":"3574","REF_FRAME":"TEME","TLE_LINE2":"2 53733  53.2147 297.5716 0001202  79.2103 280.9024 15.08830264 35740","GP_ID":"230563883"},{"ARG_OF_PERICENTER":"101.2406","SITE":"AFETR","BSTAR":"0.00544080000000","MEAN_ANOMALY":"258.8670","MEAN_ELEMENT_THEORY":"SGP4","ECCENTRICITY":"0.00007490","INCLINATION":"53.2142","DECAY_DATE":null,"NORAD_CAT_ID":"53734","CLASSIFICATION_TYPE":"U","PERIAPSIS":"538.520","EPOCH":"2023-04-22T19:24:55.021824","RA_OF_ASC_NODE":"296.3218","OBJECT_ID":"2022-107AL","MEAN_MOTION_DDOT":"0.0000000000000","RCS_SIZE":"LARGE","TIME_SYSTEM":"UTC","APOAPSIS":"539.556","OBJECT_TYPE":"PAYLOAD","LAUNCH_DATE":"2022-09-05","CENTER_NAME":"EARTH","OBJECT_NAME":"STARLINK-4616","SEMIMAJOR_AXIS":"6917.173","TLE_LINE1":"1 53734U 22107AL  23112.80897016  .00087941  00000-0  54408-2 0  9994","ELEMENT_SET_NO":"999","REV_AT_EPOCH":"3578","EPHEMERIS_TYPE":"0","REF_FRAME":"TEME","TLE_LINE2":"2 53734  53.2142 296.3218 0000749 101.2406 258.8670 15.09071589 35780","GP_ID":"230596048","MEAN_MOTION":"15.09071589","FILE":"3892285","COUNTRY_CODE":"US","MEAN_MOTION_DOT":"0.00087941","PERIOD":"95.423"},{"SITE":"AFETR","BSTAR":"0.00017680000000","MEAN_ELEMENT_THEORY":"SGP4","MEAN_ANOMALY":"270.8135","ARG_OF_PERICENTER":"89.2994","CLASSIFICATION_TYPE":"U","ECCENTRICITY":"0.00011960","INCLINATION":"53.2147","DECAY_DATE":null,"NORAD_CAT_ID":"53735","OBJECT_ID":"2022-107AM","RCS_SIZE":"LARGE","MEAN_MOTION_DDOT":"0.0000000000000","RA_OF_ASC_NODE":"307.0267","EPOCH":"2023-04-22T13:59:02.306976","PERIAPSIS":"538.908","APOAPSIS":"540.563","TIME_SYSTEM":"UTC","LAUNCH_DATE":"2022-09-05","CENTER_NAME":"EARTH","OBJECT_TYPE":"PAYLOAD","ELEMENT_SET_NO":"999","OBJECT_NAME":"STARLINK-4618","SEMIMAJOR_AXIS":"6917.870","TLE_LINE1":"1 53735U 22107AM  23112.58266559  .00002527  00000-0  17680-3 0  9991","REF_FRAME":"TEME","GP_ID":"230564868","TLE_LINE2":"2 53735  53.2147 307.0267 0001196  89.2994 270.8135 15.08843340 35617","REV_AT_EPOCH":"3561","EPHEMERIS_TYPE":"0","FILE":"3892071","MEAN_MOTION_DOT":"0.00002527","PERIOD":"95.437","COUNTRY_CODE":"US","MEAN_MOTION":"15.08843340"},{"FILE":"3892071","MEAN_MOTION_DOT":"0.00001097","PERIOD":"95.438","COUNTRY_CODE":"US","MEAN_MOTION":"15.08838200","REF_FRAME":"TEME","GP_ID":"230563133","TLE_LINE2":"2 53736  53.2137 297.5479 0001160  86.7119 273.4006 15.08838200 35746","REV_AT_EPOCH":"3574","EPHEMERIS_TYPE":"0","ELEMENT_SET_NO":"999","OBJECT_NAME":"STARLINK-4652","TLE_LINE1":"1 53736U 22107AN  23112.55051288  .00001097  00000-0  86982-4 0  9993","SEMIMAJOR_AXIS":"6917.886","CENTER_NAME":"EARTH","LAUNCH_DATE":"2022-09-05","OBJECT_TYPE":"PAYLOAD","APOAPSIS":"540.553","TIME_SYSTEM":"UTC","OBJECT_ID":"2022-107AN","RCS_SIZE":"LARGE","MEAN_MOTION_DDOT":"0.0000000000000","EPOCH":"2023-04-22T13:12:44.312832","RA_OF_ASC_NODE":"297.5479","PERIAPSIS":"538.948","CLASSIFICATION_TYPE":"U","ECCENTRICITY":"0.00011600","INCLINATION":"53.2137","DECAY_DATE":null,"NORAD_CAT_ID":"53736","SITE":"AFETR","BSTAR":"0.00008698200000","MEAN_ELEMENT_THEORY":"SGP4","MEAN_ANOMALY":"273.4006","ARG_OF_PERICENTER":"86.7119"},{"EPHEMERIS_TYPE":"0","REV_AT_EPOCH":"3575","REF_FRAME":"TEME","TLE_LINE2":"2 53737  53.2155 307.3485 0000963  96.6091 263.5011 15.08844437 35759","GP_ID":"230564384","MEAN_MOTION":"15.08844437","FILE":"3892071","COUNTRY_CODE":"US","PERIOD":"95.437","MEAN_MOTION_DOT":"0.00002887","OBJECT_TYPE":"PAYLOAD","LAUNCH_DATE":"2022-09-05","CENTER_NAME":"EARTH","OBJECT_NAME":"STARLINK-4646","SEMIMAJOR_AXIS":"6917.867","TLE_LINE1":"1 53737U 22107AP  23112.52010943  .00002887  00000-0  19939-3 0  9999","ELEMENT_SET_NO":"999","PERIAPSIS":"539.066","RA_OF_ASC_NODE":"307.3485","EPOCH":"2023-04-22T12:28:57.454752","OBJECT_ID":"2022-107AP","MEAN_MOTION_DDOT":"0.0000000000000","RCS_SIZE":"LARGE","APOAPSIS":"540.398","TIME_SYSTEM":"UTC","ARG_OF_PERICENTER":"96.6091","BSTAR":"0.00019939000000","SITE":"AFETR","MEAN_ANOMALY":"263.5011","MEAN_ELEMENT_THEORY":"SGP4","ECCENTRICITY":"0.00009630","INCLINATION":"53.2155","DECAY_DATE":null,"NORAD_CAT_ID":"53737","CLASSIFICATION_TYPE":"U"},{"OBJECT_NAME":"STARLINK-4662","TLE_LINE1":"1 53738U 22107AQ  23112.24777690  .00001890  00000-0  13675-3 0  9992","SEMIMAJOR_AXIS":"6917.868","ELEMENT_SET_NO":"999","OBJECT_TYPE":"PAYLOAD","LAUNCH_DATE":"2022-09-05","CENTER_NAME":"EARTH","MEAN_MOTION":"15.08844166","FILE":"3892071","MEAN_MOTION_DOT":"0.00001890","PERIOD":"95.437","COUNTRY_CODE":"US","REV_AT_EPOCH":"3556","EPHEMERIS_TYPE":"0","REF_FRAME":"TEME","GP_ID":"230564134","TLE_LINE2":"2 53738  53.2143 308.4919 0000948  86.3849 273.7251 15.08844166 35568","ECCENTRICITY":"0.00009480","DECAY_DATE":null,"INCLINATION":"53.2143","NORAD_CAT_ID":"53738","CLASSIFICATION_TYPE":"U","ARG_OF_PERICENTER":"86.3849","BSTAR":"0.00013675000000","SITE":"AFETR","MEAN_ELEMENT_THEORY":"SGP4","MEAN_ANOMALY":"273.7251","TIME_SYSTEM":"UTC","APOAPSIS":"540.388","EPOCH":"2023-04-22T05:56:47.924160","RA_OF_ASC_NODE":"308.4919","PERIAPSIS":"539.077","OBJECT_ID":"2022-107AQ","RCS_SIZE":"LARGE","MEAN_MOTION_DDOT":"0.0000000000000"},{"REV_AT_EPOCH":"3576","EPHEMERIS_TYPE":"0","REF_FRAME":"TEME","TLE_LINE2":"2 53740  53.2160 307.0731 0001184  95.9173 264.1954 15.08843446 35762","GP_ID":"230564368","MEAN_MOTION":"15.08843446","FILE":"3892071","COUNTRY_CODE":"US","MEAN_MOTION_DOT":"0.00001721","PERIOD":"95.437","OBJECT_TYPE":"PAYLOAD","CENTER_NAME":"EARTH","LAUNCH_DATE":"2022-09-05","OBJECT_NAME":"STARLINK-4607","TLE_LINE1":"1 53740U 22107AS  23112.59003484  .00001721  00000-0  12616-3 0  9993","SEMIMAJOR_AXIS":"6917.870","ELEMENT_SET_NO":"999","PERIAPSIS":"538.916","RA_OF_ASC_NODE":"307.0731","EPOCH":"2023-04-22T14:09:39.010176","OBJECT_ID":"2022-107AS","MEAN_MOTION_DDOT":"0.0000000000000","RCS_SIZE":"LARGE","TIME_SYSTEM":"UTC","APOAPSIS":"540.554","ARG_OF_PERICENTER":"95.9173","SITE":"AFETR","BSTAR":"0.00012616000000","MEAN_ANOMALY":"264.1954","MEAN_ELEMENT_THEORY":"SGP4","ECCENTRICITY":"0.00011840","DECAY_DATE":null,"NORAD_CAT_ID":"53740","INCLINATION":"53.2160","CLASSIFICATION_TYPE":"U"},{"CENTER_NAME":"EARTH","LAUNCH_DATE":"2022-09-05","OBJECT_TYPE":"PAYLOAD","ELEMENT_SET_NO":"999","SEMIMAJOR_AXIS":"6917.874","TLE_LINE1":"1 53741U 22107AT  23112.83339325  .00000448  00000-0  46257-4 0  9991","OBJECT_NAME":"STARLINK-4614","TLE_LINE2":"2 53741  53.2164 290.8600 0001187  80.9302 279.1825 15.08842197 36016","GP_ID":"230595546","REF_FRAME":"TEME","EPHEMERIS_TYPE":"0","REV_AT_EPOCH":"3601","MEAN_MOTION_DOT":"0.00000448","PERIOD":"95.437","COUNTRY_CODE":"US","FILE":"3892285","MEAN_MOTION":"15.08842197","MEAN_ELEMENT_THEORY":"SGP4","MEAN_ANOMALY":"279.1825","BSTAR":"0.00004625700000","SITE":"AFETR","ARG_OF_PERICENTER":"80.9302","CLASSIFICATION_TYPE":"U","DECAY_DATE":null,"INCLINATION":"53.2164","NORAD_CAT_ID":"53741","ECCENTRICITY":"0.00011870","RCS_SIZE":"LARGE","MEAN_MOTION_DDOT":"0.0000000000000","OBJECT_ID":"2022-107AT","RA_OF_ASC_NODE":"290.8600","EPOCH":"2023-04-22T20:00:05.176800","PERIAPSIS":"538.918","TIME_SYSTEM":"UTC","APOAPSIS":"540.560"},{"MEAN_ELEMENT_THEORY":"SGP4","MEAN_ANOMALY":"268.8888","SITE":"AFETR","BSTAR":"0.00022068000000","ARG_OF_PERICENTER":"91.2237","CLASSIFICATION_TYPE":"U","NORAD_CAT_ID":"53742","DECAY_DATE":null,"INCLINATION":"53.2150","ECCENTRICITY":"0.00011580","RCS_SIZE":"LARGE","MEAN_MOTION_DDOT":"0.0000000000000","OBJECT_ID":"2022-107AU","EPOCH":"2023-04-22T20:36:29.833632","RA_OF_ASC_NODE":"305.9067","PERIAPSIS":"538.924","TIME_SYSTEM":"UTC","APOAPSIS":"540.526","LAUNCH_DATE":"2022-09-05","CENTER_NAME":"EARTH","OBJECT_TYPE":"PAYLOAD","ELEMENT_SET_NO":"999","TLE_LINE1":"1 53742U 22107AU  23112.85867863  .00003227  00000-0  22068-3 0  9998","SEMIMAJOR_AXIS":"6917.860","OBJECT_NAME":"STARLINK-4637","GP_ID":"230596298","TLE_LINE2":"2 53742  53.2150 305.9067 0001158  91.2237 268.8888 15.08846608 35808","REF_FRAME":"TEME","EPHEMERIS_TYPE":"0","REV_AT_EPOCH":"3580","MEAN_MOTION_DOT":"0.00003227","PERIOD":"95.437","COUNTRY_CODE":"US","FILE":"3892285","MEAN_MOTION":"15.08846608"}];
